{"type": "FeatureCollection", "features": [ {"type": "Feature", "properties": {"norad_id": 37216, "name": "COSMO-SKYMED 4", "group": "resource", "lat": 59.54719086488684, "lon": 163.26269719853974, "alt_km": 615.8545679654762, "timestamp": "2025-12-21T16:47:54.385596+00:00", "meta": {"OBJECT_NAME": "COSMO-SKYMED 4", "OBJECT_ID": "2010-060A", "EPOCH": "2025-12-21T11:39:56.810016", "MEAN_MOTION": 14.82155859, "ECCENTRICITY": 0.0001414, "INCLINATION": 97.8799, "RA_OF_ASC_NODE": 176.6771, "ARG_OF_PERICENTER": 83.8851, "MEAN_ANOMALY": 276.2523, "EPHEMERIS_TYPE": 0, "CLASSIFICATION_TYPE": "U", "NORAD_CAT_ID": 37216, "ELEMENT_SET_NO": 999, "REV_AT_EPOCH": 81824, "BSTAR": 8.8318e-05, "MEAN_MOTION_DOT": 6.51e-06, "MEAN_MOTION_DDOT": 0}, "tle": {"line1": "1 37216U 10060A   25355.48607419  .00000651  00000+0  88318-4 0  9998", "line2": "2 37216  97.8799 176.6771 0001414  83.8851 276.2523 14.82155859818246"}}, "geometry": {"type": "Point", "coordinates": [163.26269719853974, 59.54719086488684]}}, {"type": "Feature", "properties": {"norad_id": 37387, "name": "RESOURCESAT-2", "group": "resource", "lat": -54.6683186377382, "lon": -133.39144823725394, "alt_km": 830.3822276185792, "timestamp": "2025-12-21T16:47:54.385607+00:00", "meta": {"OBJECT_NAME": "RESOURCESAT-2", "OBJECT_ID": "2011-015A", "EPOCH": "2025-12-21T10:37:33.598272", "MEAN_MOTION": 14.21600438, "ECCENTRICITY": 0.0006019, "INCLINATION": 98.7865, "RA_OF_ASC_NODE": 58.9551, "ARG_OF_PERICENTER": 19.0954, "MEAN_ANOMALY": 341.0447, "EPHEMERIS_TYPE": 0, "CLASSIFICATION_TYPE": "U", "NORAD_CAT_ID": 37387, "ELEMENT_SET_NO": 999, "REV_AT_EPOCH": 76092, "BSTAR": 6.7412e-05, "MEAN_MOTION_DOT": 1.03e-06, "MEAN_MOTION_DDOT": 0}, "tle": {"line1": "1 37387U 11015A   25355.44274998  .00000103  00000+0  67412-4 0  9990", "line2": "2 37387  98.7865  58.9551 0006019  19.0954 341.0447 14.21600438760926"}}, "geometry": {"type": "Point", "coordinates": [-133.39144823725394, -54.6683186377382]}}, {"type": "Feature", "properties": {"norad_id": 37781, "name": "HAIYANG-2A", "group": "resource", "lat": -13.69599488300518, "lon": -1.2058829978045063, "alt_km": 972.3476299215172, "timestamp": "2025-12-21T16:47:54.385622+00:00", "meta": {"OBJECT_NAME": "HAIYANG-2A", "OBJECT_ID": "2011-043A", "EPOCH": "2025-12-21T13:22:57.199008", "MEAN_MOTION": 13.7883614, "ECCENTRICITY": 0.0001633, "INCLINATION": 99.337, "RA_OF_ASC_NODE": 356.3562, "ARG_OF_PERICENTER": 71.2936, "MEAN_ANOMALY": 288.8393, "EPHEMERIS_TYPE": 0, "CLASSIFICATION_TYPE": "U", "NORAD_CAT_ID": 37781, "ELEMENT_SET_NO": 999, "REV_AT_EPOCH": 72220, "BSTAR": 8.3591e-06, "MEAN_MOTION_DOT": -3.6e-07, "MEAN_MOTION_DDOT": 0}, "tle": {"line1": "1 37781U 11043A   25355.55760647 -.00000036  00000+0  83591-5 0  9995", "line2": "2 37781  99.3370 356.3562 0001633  71.2936 288.8393 13.78836140722205"}}, "geometry": {"type": "Point", "coordinates": [-1.2058829978045063, -13.69599488300518]}}, {"type": "Feature", "properties": {"norad_id": 37791, "name": "RASAT", "group": "resource", "lat": 81.73149851380107, "lon": -17.82374888130475, "alt_km": 651.2748474147538, "timestamp": "2025-12-21T16:47:54.385634+00:00", "meta": {"OBJECT_NAME": "RASAT", "OBJECT_ID": "2011-044D", "EPOCH": "2025-12-21T13:22:10.182720", "MEAN_MOTION": 14.67920437, "ECCENTRICITY": 0.0021513, "INCLINATION": 98.0652, "RA_OF_ASC_NODE": 84.6845, "ARG_OF_PERICENTER": 38.4737, "MEAN_ANOMALY": 18.5688, "EPHEMERIS_TYPE": 0, "CLASSIFICATION_TYPE": "U", "NORAD_CAT_ID": 37791, "ELEMENT_SET_NO": 999, "REV_AT_EPOCH": 76712, "BSTAR": 8.8355e-05, "MEAN_MOTION_DOT": 4.58e-06, "MEAN_MOTION_DDOT": 0}, "tle": {"line1": "1 37791U 11044D   25355.55706230  .00000458  00000+0  88355-4 0  9994", "line2": "2 37791  98.0652  84.6845 0021513  38.4737  18.5688 14.67920437767120"}}, "geometry": {"type": "Point", "coordinates": [-17.82374888130475, 81.73149851380107]}}, {"type": "Feature", "properties": {"norad_id": 37841, "name": "SRMSAT", "group": "resource", "lat": -5.536808763470862, "lon": 38.2432597138842, "alt_km": 849.3289017528496, "timestamp": "2025-12-21T16:47:54.385645+00:00", "meta": {"OBJECT_NAME": "SRMSAT", "OBJECT_ID": "2011-058D", "EPOCH": "2025-12-21T11:55:34.039200", "MEAN_MOTION": 14.11514217, "ECCENTRICITY": 0.0011965, "INCLINATION": 19.9726, "RA_OF_ASC_NODE": 54.9508, "ARG_OF_PERICENTER": 49.5052, "MEAN_ANOMALY": 340.41, "EPHEMERIS_TYPE": 0, "CLASSIFICATION_TYPE": "U", "NORAD_CAT_ID": 37841, "ELEMENT_SET_NO": 999, "REV_AT_EPOCH": 73268, "BSTAR": 7.0306e-05, "MEAN_MOTION_DOT": 3.94e-06, "MEAN_MOTION_DDOT": 0}, "tle": {"line1": "1 37841U 11058D   25355.49692175  .00000394  00000+0  70306-4 0  9996", "line2": "2 37841  19.9726  54.9508 0011965  49.5052 340.4100 14.11514217732682"}}, "geometry": {"type": "Point", "coordinates": [38.2432597138842, -5.536808763470862]}}, {"type": "Feature", "properties": {"norad_id": 38012, "name": "PLEIADES 1A", "group": "resource", "lat": -53.64128654165869, "lon": 79.60135132792735, "alt_km": 705.3132945573052, "timestamp": "2025-12-21T16:47:54.385655+00:00", "meta": {"OBJECT_NAME": "PLEIADES 1A", "OBJECT_ID": "2011-076F", "EPOCH": "2025-12-21T12:40:34.034880", "MEAN_MOTION": 14.58569058, "ECCENTRICITY": 0.0001162, "INCLINATION": 98.182, "RA_OF_ASC_NODE": 68.1616, "ARG_OF_PERICENTER": 75.354, "MEAN_ANOMALY": 48.9128, "EPHEMERIS_TYPE": 0, "CLASSIFICATION_TYPE": "U", "NORAD_CAT_ID": 38012, "ELEMENT_SET_NO": 999, "REV_AT_EPOCH": 74609, "BSTAR": 9.841e-05, "MEAN_MOTION_DOT": 4.12e-06, "MEAN_MOTION_DDOT": 0}, "tle": {"line1": "1 38012U 11076F   25355.52817170  .00000412  00000+0  98410-4 0  9992", "line2": "2 38012  98.1820  68.1616 0001162  75.3540  48.9128 14.58569058746095"}}, "geometry": {"type": "Point", "coordinates": [79.60135132792735, -53.64128654165869]}}, {"type": "Feature", "properties": {"norad_id": 38038, "name": "ZIYUAN 1-02C (ZY 1-02C)", "group": "resource", "lat": -81.38792245062507, "lon": 139.93019760393673, "alt_km": 777.2994889297379, "timestamp": "2025-12-21T16:47:54.385665+00:00", "meta": {"OBJECT_NAME": "ZIYUAN 1-02C (ZY 1-02C)", "OBJECT_ID": "2011-079A", "EPOCH": "2025-12-21T12:43:09.964416", "MEAN_MOTION": 14.38021966, "ECCENTRICITY": 0.0007482, "INCLINATION": 98.4328, "RA_OF_ASC_NODE": 61.3819, "ARG_OF_PERICENTER": 115.257, "MEAN_ANOMALY": 357.0947, "EPHEMERIS_TYPE": 0, "CLASSIFICATION_TYPE": "U", "NORAD_CAT_ID": 38038, "ELEMENT_SET_NO": 999, "REV_AT_EPOCH": 73367, "BSTAR": 0.00022769, "MEAN_MOTION_DOT": 6.46e-06, "MEAN_MOTION_DDOT": 0}, "tle": {"line1": "1 38038U 11079A   25355.52997644  .00000646  00000+0  22769-3 0  9990", "line2": "2 38038  98.4328  61.3819 0007482 115.2570 357.0947 14.38021966733679"}}, "geometry": {"type": "Point", "coordinates": [139.93019760393673, -81.38792245062507]}}, {"type": "Feature", "properties": {"norad_id": 38338, "name": "ARIRANG-3 (KOMPSAT-3)", "group": "resource", "lat": -54.4783752834466, "lon": -37.79378602606717, "alt_km": 691.206258581431, "timestamp": "2025-12-21T16:47:54.385676+00:00", "meta": {"OBJECT_NAME": "ARIRANG-3 (KOMPSAT-3)", "OBJECT_ID": "2012-025B", "EPOCH": "2025-12-21T12:07:20.631360", "MEAN_MOTION": 14.61723268, "ECCENTRICITY": 0.0004847, "INCLINATION": 98.3335, "RA_OF_ASC_NODE": 310.161, "ARG_OF_PERICENTER": 307.9363, "MEAN_ANOMALY": 52.1399, "EPHEMERIS_TYPE": 0, "CLASSIFICATION_TYPE": "U", "NORAD_CAT_ID": 38338, "ELEMENT_SET_NO": 999, "REV_AT_EPOCH": 72538, "BSTAR": 9.809e-05, "MEAN_MOTION_DOT": 4.4e-06, "MEAN_MOTION_DDOT": 0}, "tle": {"line1": "1 38338U 12025B   25355.50509990  .00000440  00000+0  98090-4 0  9999", "line2": "2 38338  98.3335 310.1610 0004847 307.9363  52.1399 14.61723268725388"}}, "geometry": {"type": "Point", "coordinates": [-37.79378602606717, -54.4783752834466]}}, {"type": "Feature", "properties": {"norad_id": 38709, "name": "EXACTVIEW-1 (ADS-1B)", "group": "resource", "lat": -17.090957671020647, "lon": -78.50372441204851, "alt_km": 818.4171953380783, "timestamp": "2025-12-21T16:47:54.385686+00:00", "meta": {"OBJECT_NAME": "EXACTVIEW-1 (ADS-1B)", "OBJECT_ID": "2012-039C", "EPOCH": "2025-12-21T07:26:55.885056", "MEAN_MOTION": 14.24911158, "ECCENTRICITY": 0.0010266, "INCLINATION": 98.9638, "RA_OF_ASC_NODE": 103.8803, "ARG_OF_PERICENTER": 328.7162, "MEAN_ANOMALY": 31.3404, "EPHEMERIS_TYPE": 0, "CLASSIFICATION_TYPE": "U", "NORAD_CAT_ID": 38709, "ELEMENT_SET_NO": 999, "REV_AT_EPOCH": 69737, "BSTAR": 6.9188e-05, "MEAN_MOTION_DOT": 1.15e-06, "MEAN_MOTION_DDOT": 0}, "tle": {"line1": "1 38709U 12039C   25355.31036904  .00000115  00000+0  69188-4 0  9990", "line2": "2 38709  98.9638 103.8803 0010266 328.7162  31.3404 14.24911158697372"}}, "geometry": {"type": "Point", "coordinates": [-78.50372441204851, -17.090957671020647]}}, {"type": "Feature", "properties": {"norad_id": 38755, "name": "SPOT 6", "group": "resource", "lat": -48.72758986394766, "lon": -129.0856470133701, "alt_km": 705.5695659663133, "timestamp": "2025-12-21T16:47:54.385696+00:00", "meta": {"OBJECT_NAME": "SPOT 6", "OBJECT_ID": "2012-047A", "EPOCH": "2025-12-21T12:27:26.637984", "MEAN_MOTION": 14.5854025, "ECCENTRICITY": 0.0001317, "INCLINATION": 98.1567, "RA_OF_ASC_NODE": 60.1421, "ARG_OF_PERICENTER": 77.6678, "MEAN_ANOMALY": 282.4669, "EPHEMERIS_TYPE": 0, "CLASSIFICATION_TYPE": "U", "NORAD_CAT_ID": 38755, "ELEMENT_SET_NO": 999, "REV_AT_EPOCH": 70715, "BSTAR": 0.00012823, "MEAN_MOTION_DOT": 5.51e-06, "MEAN_MOTION_DDOT": 0}, "tle": {"line1": "1 38755U 12047A   25355.51905831  .00000551  00000+0  12823-3 0  9993", "line2": "2 38755  98.1567  60.1421 0001317  77.6678 282.4669 14.58540250707154"}}, "geometry": {"type": "Point", "coordinates": [-129.0856470133701, -48.72758986394766]}}]}